[{"OBJECT_NAME":"STARLINK-3234","OBJECT_ID":"2022-001N","EPOCH":"2026-03-09T12:26:56.842080","MEAN_MOTION":15.0884768,"ECCENTRICITY":9.697e-5,"INCLINATION":53.2184,"RA_OF_ASC_NODE":169.89,"ARG_OF_PERICENTER":93.6087,"MEAN_ANOMALY":266.5016,"EPHEMERIS_TYPE":0,"CLASSIFICATION_TYPE":"U","NORAD_CAT_ID":50815,"ELEMENT_SET_NO":999,"REV_AT_EPOCH":23038,"BSTAR":0.00017818234,"MEAN_MOTION_DOT":2.55e-5,"MEAN_MOTION_DDOT":0},{"OBJECT_NAME":"ICON","OBJECT_ID":"2019-068A","EPOCH":"2026-03-09T22:35:01.599072","MEAN_MOTION":15.06276737,"ECCENTRICITY":0.00134076,"INCLINATION":26.9847,"RA_OF_ASC_NODE":325.9297,"ARG_OF_PERICENTER":187.0145,"MEAN_ANOMALY":173.0229,"EPHEMERIS_TYPE":0,"CLASSIFICATION_TYPE":"U","NORAD_CAT_ID":44628,"ELEMENT_SET_NO":999,"REV_AT_EPOCH":35105,"BSTAR":0.00030799545,"MEAN_MOTION_DOT":4.879e-5,"MEAN_MOTION_DDOT":0}]
